OBJECT_NAME,OBJECT_ID,EPOCH,MEAN_MOTION,ECCENTRICITY,INCLINATION,RA_OF_ASC_NODE,ARG_OF_PERICENTER,MEAN_ANOMALY,EPHEMERIS_TYPE,CLASSIFICATION_TYPE,NORAD_CAT_ID,ELEMENT_SET_NO,REV_AT_EPOCH,BSTAR,MEAN_MOTION_DOT,MEAN_MOTION_DDOT
STARLINK-3289,2021-125T,2026-06-18T07:25:12.667296,15.13997285,.0001349,53.2134,144.9889,43.7089,316.4012,0,U,50173,999,25197,.86409E-3,.156E-3,0
STARLINK-3292,2021-125U,2026-06-18T18:00:02.000160,15.15634576,.00018,53.1596,150.8518,44.2947,37.2333,0,U,50174,999,582,.31471E-2,.60739E-3,0
STARLINK-3291,2021-125V,2026-06-18T15:45:02.304288,15.08834340,.0001332,53.1599,155.7602,76.9013,283.2127,0,U,50175,999,25184,-.58249E-4,-.1215E-4,0
STARLINK-3293,2021-125W,2026-06-18T04:10:50.949120,15.08823187,.0001252,53.1596,157.9264,87.3802,272.7333,0,U,50176,999,25181,.52375E-4,.545E-5,0
STARLINK-3282,2021-125X,2026-06-18T18:00:02.000160,15.16973332,.0001623,53.1614,155.2019,113.8913,147.2516,0,U,50177,999,581,.27836E-2,.55745E-3,0
STARLINK-3283,2021-125Z,2026-06-18T09:02:18.556224,15.08840079,.0001348,53.1600,157.0161,73.0552,287.0587,0,U,50179,999,25180,.42445E-4,.388E-5,0
STARLINK-3265,2021-125AA,2026-06-18T08:42:29.793312,15.08825041,.0000983,53.1601,157.0883,91.0041,269.1063,0,U,50180,999,25184,.44585E-4,.422E-5,0
STARLINK-3285,2021-125AB,2026-06-18T16:28:48.426240,15.08835353,.0001006,53.1604,155.6331,90.5666,269.5441,0,U,50181,999,25185,.49301E-4,.497E-5,0
STARLINK-3277,2021-125AC,2026-06-18T18:00:02.000160,15.20870199,.0001285,53.1614,154.8726,133.2616,134.7523,0,U,50182,999,582,.41362E-2,.9339E-3,0
STARLINK-3281,2021-125AD,2026-06-18T16:22:07.944960,15.08833828,.0001446,53.1605,155.6441,79.4271,280.6884,0,U,50183,999,25189,.38593E-4,.326E-5,0
STARLINK-3279,2021-125AF,2026-06-18T16:38:01.940064,15.08835994,.0001219,53.1604,155.6327,83.7324,276.3806,0,U,50185,999,25185,.4646E-4,.451E-5,0
STARLINK-3274,2021-125AG,2026-06-18T10:31:03.599040,15.08836249,.0001306,53.1605,166.7399,41.1199,318.9891,0,U,50186,999,25166,-.55825E-4,-.1176E-4,0
STARLINK-3272,2021-125AH,2026-06-18T04:09:14.011776,15.11822194,.0001592,53.2146,147.0427,44.3348,315.7773,0,U,50187,999,25190,.69144E-3,.11671E-3,0
STARLINK-3276,2021-125AK,2026-06-18T16:07:27.636096,15.16495363,.0004066,53.2109,150.9170,69.4787,290.6645,0,U,50189,999,25195,.92572E-3,.17984E-3,0
STARLINK-3268,2021-125AL,2026-06-18T18:00:02.000160,15.19778694,.0001313,53.1604,145.0821,119.3433,179.3327,0,U,50190,999,581,.33447E-2,.7288E-3,0
STARLINK-3273,2021-125AM,2026-06-18T09:32:45.816000,15.08838125,.0001268,53.1605,166.9211,89.4682,270.6455,0,U,50191,999,25165,.40252E-5,-.224E-5,0
STARLINK-3259,2021-125AN,2026-06-18T15:35:46.004064,15.08830775,.0001283,53.1597,145.7899,87.6622,272.4517,0,U,50192,999,25197,.25805E-4,.123E-5,0
STARLINK-3261,2021-125AP,2026-06-18T15:51:40.959936,15.08838955,.000125,53.1604,145.7399,91.9755,268.1379,0,U,50193,999,25202,.61025E-4,.683E-5,0
STARLINK-3266,2021-125AR,2026-06-18T15:46:21.851904,15.08834243,.00013,53.1612,145.7569,85.3080,274.8060,0,U,50195,999,25197,.76301E-4,.926E-5,0
STARLINK-3267,2021-125AT,2026-06-18T09:03:37.700352,15.08827839,.0001305,53.1597,147.0129,78.7927,281.3211,0,U,50197,999,25198,.24817E-4,.107E-5,0
STARLINK-3264,2021-125AU,2026-06-18T05:31:39.254880,15.08830513,.0001317,53.1599,147.6747,92.5140,267.6002,0,U,50198,999,25191,.133E-4,-.76E-6,0
STARLINK-3270,2021-125AV,2026-06-18T05:05:08.564352,15.08851570,.0001544,53.1598,147.7604,68.4631,291.6525,0,U,50199,999,25190,.15806E-3,.2229E-4,0
STARLINK-3235,2021-125AW,2026-06-18T15:09:16.315776,15.08833509,.0001338,53.1600,145.8358,76.5976,283.5165,0,U,50200,999,25198,-.12362E-4,-.485E-5,0
STARLINK-3256,2021-125AY,2026-06-18T08:10:39.216288,15.08832598,.0001326,53.1604,147.1781,91.8418,268.2725,0,U,50202,999,25192,.11221E-3,.1498E-4,0
STARLINK-3257,2021-125AZ,2026-06-18T04:13:33.782016,15.08830391,.000142,53.1613,148.0064,88.2193,271.8961,0,U,50203,999,25196,.81824E-5,-.158E-5,0
STARLINK-3254,2021-125BA,2026-06-18T05:11:49.970112,15.08836469,.0001334,53.1595,147.7453,93.1803,266.9341,0,U,50204,999,25196,.50293E-4,.512E-5,0
STARLINK-3260,2021-125BB,2026-06-18T13:18:02.538720,15.08832075,.000172,53.1612,116.2192,84.1456,275.9731,0,U,50205,999,25238,.15966E-4,-.34E-6,0
STARLINK-3323,2022-001B,2026-06-18T10:33:42.950016,15.08844824,.0001223,53.1611,66.7332,103.2775,256.8353,0,U,50804,999,24575,.63275E-4,.719E-5,0
STARLINK-3333,2022-001C,2026-06-18T10:28:22.694592,15.08856001,.0001287,53.1612,66.7481,89.0733,271.0406,0,U,50805,999,24575,.14671E-3,.2049E-4,0
STARLINK-3335,2022-001D,2026-06-18T10:23:07.123776,15.08830693,.0001333,53.1614,66.7658,91.1739,268.9405,0,U,50806,999,24575,-.45052E-5,-.36E-5,0
STARLINK-3355,2022-001F,2026-06-18T10:12:30.761856,15.08833772,.0001723,53.1611,66.7984,82.2466,277.8721,0,U,50808,999,24575,.15602E-3,.2195E-4,0
STARLINK-3232,2022-001G,2026-06-18T10:17:49.206336,15.08832577,.0001362,53.1611,66.7814,94.0883,266.0264,0,U,50809,999,24575,.4024E-4,.352E-5,0
STARLINK-3338,2022-001K,2026-06-17T23:47:13.435008,15.08841848,.00010889,53.1596,68.8609,100.0796,260.0318,0,U,50812,999,24568,-.2947488E-3,-.4976E-4,0
STARLINK-3349,2022-001L,2026-06-17T22:26:05.945856,15.45926483,.00011611,53.2028,10.6265,179.5761,180.5249,0,U,50813,999,24651,.10357915E-2,.5112E-3,0
STARLINK-3324,2022-001M,2026-06-18T10:58:53.096736,15.08852626,.0000986,53.1613,76.6511,89.1828,270.9277,0,U,50814,999,24562,-.11154E-3,-.2063E-4,0
STARLINK-3234,2022-001N,2026-06-18T11:14:46.505184,15.08837248,.000136,53.1615,76.6053,85.5190,274.5956,0,U,50815,999,24562,.31033E-4,.206E-5,0
STARLINK-3342,2022-001P,2026-06-18T10:35:01.565376,15.17729407,.0003477,53.2115,70.5448,109.6735,250.4637,0,U,50816,999,24570,.19225E-2,.39161E-3,0
STARLINK-3341,2022-001Q,2026-06-18T11:09:28.677600,15.08833814,.0001508,53.1591,76.6199,92.4442,267.6722,0,U,50817,999,24562,.73566E-4,.883E-5,0
STARLINK-3336,2022-001R,2026-06-18T10:42:59.323680,15.08834187,.000159,53.1605,76.7042,97.1642,262.9531,0,U,50818,999,24561,-.19083E-4,-.592E-5,0
STARLINK-3327,2022-001S,2026-06-18T10:53:37.290912,15.08811307,.0000981,53.1614,76.6705,112.1849,247.9247,0,U,50819,999,24562,-.19793E-3,-.3434E-4,0
STARLINK-3339,2022-001T,2026-06-18T10:27:05.028768,15.08838857,.0001553,53.1597,76.7535,97.0266,263.0902,0,U,50820,999,24561,-.53822E-4,-.1145E-4,0
STARLINK-3346,2022-001U,2026-06-18T11:25:20.962848,15.08839656,.0001584,53.1617,76.4548,92.1604,267.9569,0,U,50821,999,24562,.33677E-4,.248E-5,0
STARLINK-3343,2022-001V,2026-06-18T00:44:10.245696,15.08832080,.00013404,53.1604,78.5724,90.1573,269.9572,0,U,50822,999,24555,.12072341E-4,-.96E-6,0
STARLINK-3334,2022-001W,2026-06-18T11:04:11.078112,15.08844765,.0001387,53.1606,76.6389,90.3398,269.7753,0,U,50823,999,24562,.48608E-4,.486E-5,0
STARLINK-3332,2022-001Y,2026-06-18T10:21:47.068128,15.08830534,.0000873,53.1609,76.7687,61.2583,298.8496,0,U,50825,999,24561,.15882E-4,-.35E-6,0
STARLINK-3329,2022-001AA,2026-06-18T10:37:41.752704,15.08826394,.0001748,53.1613,76.7236,99.4943,260.6246,0,U,50827,999,24561,-.41556E-4,-.949E-5,0
STARLINK-3290,2022-001AB,2026-06-17T23:10:08.532192,15.08833846,.0001078,53.1598,78.7575,89.8652,270.2463,0,U,50828,999,24539,-.190123E-6,-.291E-5,0
STARLINK-3294,2022-001AC,2026-06-18T04:26:44.475936,15.08831364,.00013394,53.1613,77.8782,90.4725,269.6420,0,U,50829,999,24557,.36782718E-4,.297E-5,0
STARLINK-3278,2022-001AD,2026-06-18T11:13:27.404256,15.08827013,.0001406,53.1613,86.6095,90.3885,269.7268,0,U,50830,999,24548,-.67289E-4,-.1358E-4,0
STARLINK-3299,2022-001AE,2026-06-18T11:30:41.382432,15.08834460,.0001525,53.1614,76.6227,93.1504,266.9662,0,U,50831,999,24562,.27484E-4,.149E-5,0
STARLINK-3328,2022-001AF,2026-06-18T04:52:10.565184,15.09089265,.0001469,53.1732,87.8532,95.9650,264.1509,0,U,50832,999,24544,.90455E-3,.14236E-3,0
STARLINK-3331,2022-001AH,2026-06-18T04:30:43.068672,15.08833211,.00013776,53.1608,87.8715,89.7250,270.3899,0,U,50834,999,24543,-.14679662E-4,-.522E-5,0
STARLINK-3310,2022-001AJ,2026-06-18T11:46:22.202400,15.10635670,.0001778,53.2154,86.3841,95.0712,265.0484,0,U,50835,999,24548,.83232E-3,.13651E-3,0
STARLINK-3330,2022-001AK,2026-06-18T16:47:18.957408,15.09659911,.0001561,53.1608,85.3355,77.2780,282.8386,0,U,50836,999,24541,.61576E-2,.101382E-2,0
STARLINK-3318,2022-001AL,2026-06-18T00:28:16.011264,15.08845033,.0001422,53.1601,78.6207,97.3249,262.7904,0,U,50837,999,24555,-.23440294E-3,-.4017E-4,0
STARLINK-3320,2022-001AN,2026-06-18T18:00:02.000160,15.13288111,.0001754,53.1595,85.3044,144.2567,148.3141,0,U,50839,999,582,.33914E-2,.61279E-3,0
STARLINK-3295,2022-001AP,2026-06-18T11:55:50.916576,15.08833036,.0001223,53.1611,86.4762,90.4111,269.7021,0,U,50840,999,24547,.66161E-5,-.183E-5,0
STARLINK-3300,2022-001AQ,2026-06-18T12:11:44.540160,15.08833996,.0001404,53.1599,86.4278,85.5592,274.5560,0,U,50841,999,24548,-.27721E-4,-.729E-5,0
STARLINK-3302,2022-001AR,2026-06-18T18:00:02.000160,15.13120760,.0000729,53.1592,85.3070,152.3904,179.0940,0,U,50842,999,577,.34371E-2,.61821E-3,0
STARLINK-3326,2022-001AT,2026-06-18T11:34:39.254592,15.08833037,.0001382,53.1613,86.5438,90.9483,269.1667,0,U,50844,999,24548,.9114E-5,-.143E-5,0
STARLINK-3230,2022-001AU,2026-06-18T18:00:02.000160,15.12090096,.0002346,53.1601,85.3140,90.6617,56.8084,0,U,50845,999,582,.34299E-2,.59922E-3,0
STARLINK-3308,2022-001AV,2026-06-18T18:00:02.000160,15.14401978,.0000455,53.1595,85.3985,139.7681,224.4599,0,U,50846,999,582,.34216E-2,.63821E-3,0
STARLINK-3315,2022-001AX,2026-06-18T01:51:44.379072,15.08830931,.0001303,53.1605,88.3613,81.9507,278.1632,0,U,50848,999,24542,-.68757E-5,-.397E-5,0
STARLINK-3311,2022-001AY,2026-06-18T11:39:48.623616,15.08923823,.0000905,53.1610,86.5252,140.5223,219.5835,0,U,50849,999,24548,.69268E-3,.10779E-3,0
STARLINK-3312,2022-001AZ,2026-06-17T23:02:09.750048,15.08832126,.00013113,53.1608,48.8900,91.0293,269.0848,0,U,50850,999,24650,.15118522E-4,-.47E-6,0
